GLOBALSTAR M067         
1 32263U 07048A   25016.56529369 -.00000117  00000+0 -14846-3 0  9990
2 32263  51.9728 119.5880 0001154  69.0639  52.0740 12.40664494790909
GLOBALSTAR M070         
1 32264U 07048B   25015.86120166 -.00000062  00000+0  23431-3 0  9993
2 32264  51.9726 232.5493 0001157  86.0605 294.0040 12.62310696794438
GLOBALSTAR M066         
1 32265U 07048C   25016.60904469 -.00000080  00000+0  12743-3 0  9997
2 32265  51.9670 105.8260 0001075 128.9080  19.9299 12.42169536797484
GLOBALSTAR M068         
1 32266U 07048D   25016.44100753 -.00000090  00000+0  77406-4 0  9993
2 32266  51.9898  44.8261 0001240 152.6652 356.4822 12.62813400798382
GLOBALSTAR M079         
1 37188U 10054A   25016.86813292 -.00000092  00000+0  64603-4 0  9994
2 37188  52.0018 240.4287 0000890  60.8495  53.3762 12.62270058658021
GLOBALSTAR M074         
1 37189U 10054B   25016.63953338 -.00000083  00000+0  11331-3 0  9995
2 37189  51.9994 240.4701 0001182  76.0689 318.9899 12.62261959657922
GLOBALSTAR M076         
1 37190U 10054C   25016.58268309 -.00000072  00000+0  17924-3 0  9990
2 37190  52.0007 240.7998 0001191  60.7085 316.3562 12.62276511657639
GLOBALSTAR M077         
1 37191U 10054D   25016.83319684 -.00000115  00000+0 -64897-4 0  9993
2 37191  52.0043 196.8499 0001110  90.4637  44.3633 12.62270006658777
